63740,KUIPER-00027,2025,94.06,-1.0,+,51.88,Active,0,LEO,USA,USA,Unknown,Unknown,Unknown,1 63740U 25088S   25221.58335648 -.00553787  00000+0 -19472-1 0  9997,2 63740  51.8752 321.9733 0001048 125.9604 346.4214 15.31209685  5636,15.31209685,0.0001048,LEO
63741,KUIPER-00028,2025,93.81,-1.0,+,51.87,Active,0,LEO,USA,USA,Unknown,Unknown,Unknown,1 63741U 25088T   25221.58335648 -.00857351  00000+0 -27193-1 0  9991,2 63741  51.8740 321.6658 0002002  73.8202 169.3451 15.34733168  5639,15.34733168,0.0002002,LEO
63742,KUIPER-00029,2025,93.66,-1.0,+,51.87,Active,0,LEO,USA,USA,Unknown,Unknown,Unknown,1 63742U 25088U   25221.53437129  .00019447  00000+0  52937-3 0  9994,2 63742  51.8710 322.5767 0004478 111.8828 248.2636 15.37511500 16017,15.375115,0.0004478,LEO
63743,KUIPER-00030,2025,96.13,-1.0,+,51.89,Active,0,LEO,USA,USA,Unknown,Unknown,Unknown,1 63743U 25088V   25221.58335648 -.01145848  00000+0 -10228+0 0  9994,2 63743  51.9066 329.1964 0014976  95.7679 115.0311 14.98666514  5890,14.98666514,0.0014976,LEO
63744,KUIPER-00031,2025,94.21,-1.0,+,51.87,Active,0,LEO,USA,USA,Unknown,Unknown,Unknown,1 63744U 25088W   25221.58335648 -.00777277  00000+0 -30380-1 0  9994,2 63744  51.8746 322.2868 0002926 121.4380 200.3378 15.27819442  5692,15.27819442,0.0002926,LEO
63745,KUIPER-00032,2025,94.18,-1.0,+,51.87,Active,0,LEO,USA,USA,Unknown,Unknown,Unknown,1 63745U 25088X   25221.58112811  .00016779  00000+0  59948-3 0  9994,2 63745  51.8727 322.8595 0005037  82.0195 278.1359 15.28936474 17014,15.28936474,0.0005037,LEO
63746,KUIPER-00033,2025,97.3,-1.0,+,51.9,Active,0,LEO,USA,USA,Unknown,Unknown,Unknown,1 63746U 25088Y   25221.58276256  .00006085  00000+0  82641-3 0  9994,2 63746  51.9010 344.5283 0002973 180.6160 179.4799 14.79936533 16199,14.79936533,0.0002973,LEO
63747,KUIPER-00034,2025,93.61,-1.0,+,51.87,Active,0,LEO,USA,USA,Unknown,Unknown,Unknown,1 63747U 25088Z   25221.54241659  .00022691  00000+0  60059-3 0  9990,2 63747  51.8718 321.9073 0001393 100.3730 259.7414 15.38283474 16187,15.38283474,0.0001393,LEO
